NUSAT-48 (HENRIETTA LE*)
1 60498U 24149AG  26068.80506098  .00012988  00000+0  45212-3 0  9999
2 60498  97.3923 150.8264 0002754 263.3026  96.7901 15.29812597 86946
STARLINK-33709          
1 63419U 25065W   26068.14755491  .00041815  00000+0  15197-2 0  9992
2 63419  42.9977 110.3793 0001213 265.0851  94.9862 15.27595604 52752
